[{"OBJECT_NAME":"VSP RF B1","OBJECT_ID":"2024-043AR","EPOCH":"2026-03-09T22:40:29.479296","MEAN_MOTION":15.26694159,"ECCENTRICITY":0.00102608,"INCLINATION":97.5446,"RA_OF_ASC_NODE":204.7052,"ARG_OF_PERICENTER":220.7435,"MEAN_ANOMALY":139.3037,"EPHEMERIS_TYPE":0,"CLASSIFICATION_TYPE":"U","NORAD_CAT_ID":59137,"ELEMENT_SET_NO":999,"REV_AT_EPOCH":11187,"BSTAR":0.00024406819,"MEAN_MOTION_DOT":6.341e-5,"MEAN_MOTION_DDOT":0},{"OBJECT_NAME":"STARLINK-34144","OBJECT_ID":"2025-099G","EPOCH":"2026-03-09T14:50:33.174528","MEAN_MOTION":15.27629676,"ECCENTRICITY":0.00013648,"INCLINATION":43.003,"RA_OF_ASC_NODE":176.7816,"ARG_OF_PERICENTER":294.1611,"MEAN_ANOMALY":65.9098,"EPHEMERIS_TYPE":0,"CLASSIFICATION_TYPE":"U","NORAD_CAT_ID":63958,"ELEMENT_SET_NO":999,"REV_AT_EPOCH":4732,"BSTAR":0.0015836295,"MEAN_MOTION_DOT":0.0004364,"MEAN_MOTION_DDOT":0}]
